EUTELSAT 7A             
1 28187U 04008A   25280.60881853  .00000109  00000+0  00000+0 0  9992
2 28187   5.1843  75.0051 0001341 159.6690 221.8424  1.00274100 78825
EUTELSAT 174A           
1 28924U 05052A   25280.67087214  .00000014  00000+0  00000+0 0  9992
2 28924   3.5749  79.6418 0006360 120.0242 232.4278  1.00271421 49791
EUTELSAT HOTBIRD 13B    
1 29270U 06032A   25280.71437903  .00000159  00000+0  00000+0 0  9995
2 29270   1.0038  84.9645 0003871 107.2054 114.7117  1.00271777 44774
EUTELSAT HOTBIRD 13C    
1 33459U 08065A   25280.70527898 -.00000096  00000+0  00000+0 0  9990
2 33459   2.2960  82.1624 0005557 137.7161  38.1458  1.00271405 44812
EUTELSAT 36B            
1 36101U 09065A   25280.57510505  .00000114  00000+0  00000+0 0  9990
2 36101   0.0673  33.8459 0006190 172.7712  67.4083  1.00273295 58172
EUTELSAT KA-SAT 9A      
1 37258U 10069A   25280.21006340  .00000064  00000+0  00000+0 0  9992
2 37258   0.0585 322.4286 0002700 204.4532 293.8838  1.00270047 41479
EUTELSAT 7 WEST A       
1 37816U 11051A   25280.70631898 -.00000058  00000+0  00000+0 0  9994
2 37816   0.0678  19.6640 0006538 177.8812  66.0408  1.00271458 51356
EUTELSAT 16A            
1 37836U 11057A   25280.71099902  .00000107  00000+0  00000+0 0  9991
2 37836   0.0660 350.3171 0005372 209.5222  88.7472  1.00273691  4795
